     2.100          NAVIGATION                              RINEX VERSION / TYPE
fic2rin                                 12/07/2011 00:08:25 PGM / RUN BY / DATE
                                                            END OF HEADER
31 11 12  6  8  0  0.0  .178817659616D-03  .500222085975D-11  .000000000000D+00
     .850000000000D+02 -.831250000000D+02  .408195574413D-08 -.236524526299D+01
    -.411272048950D-05  .793366564903D-02  .708550214767D-05  .515354135323D+04
     .201600000000D+06 -.353902578354D-07 -.122216182251D+01  .156462192535D-06
     .980371379214D+00  .252906250000D+03 -.951014706608D+00 -.776103756408D-08
    -.103932900651D-09  .100000000000D+01  .166500000000D+04  .000000000000D+00
     .240000000000D+01  .000000000000D+00 -.130385160446D-07  .850000000000D+02
     .194406000000D+06  .400000000000D+01
32 11 12  6  8  0  0.0 -.372838694602D-03 -.591171556152D-11  .000000000000D+00
     .660000000000D+02  .101500000000D+03  .445482841863D-08 -.163374988593D+01
     .528432428837D-05  .120515805902D-01  .831112265587D-05  .515379368019D+04
     .201600000000D+06 -.195577740669D-06  .303922111937D+01 -.745058059692D-08
     .953526852941D+00  .219718750000D+03 -.661617817872D+00 -.812855287257D-08
     .246438836595D-09  .100000000000D+01  .166500000000D+04  .000000000000D+00
     .240000000000D+01  .000000000000D+00 -.279396772385D-08  .660000000000D+02
     .194406000000D+06  .400000000000D+01
 7 11 12  6  7 59 44.0  .415872782469D-04  .227373675443D-11  .000000000000D+00
     .200000000000D+01 -.971250000000D+02  .414838708269D-08 -.237495561873D+01
    -.507012009621D-05  .508908298798D-02  .769458711147D-05  .515363302994D+04
     .201584000000D+06 -.372529029846D-07 -.122430649991D+01 -.912696123123D-07
     .975267628154D+00  .242031250000D+03 -.301223339975D+01 -.790568644643D-08
    -.104290058385D-09  .100000000000D+01  .166500000000D+04  .000000000000D+00
     .240000000000D+01  .000000000000D+00 -.111758708954D-07  .200000000000D+01
     .198456000000D+06  .400000000000D+01
18 11 12  6  7 59 28.0  .170513521880D-03  .181898940355D-11  .000000000000D+00
     .220000000000D+02  .900000000000D+02  .492663378550D-08  .194625093979D+01
     .461004674435D-05  .127348598326D-01  .855140388012D-05  .515365818024D+04
     .201568000000D+06 -.268220901489D-06  .296431564534D+01 -.247731804848D-06
     .931568717359D+00  .197218750000D+03 -.220373808885D+01 -.823284293095D-08
     .107504477993D-09  .100000000000D+01  .166500000000D+04  .000000000000D+00
     .240000000000D+01  .000000000000D+00 -.111758708954D-07  .220000000000D+02
     .199206000000D+06  .400000000000D+01
20 11 12  6  7 59 44.0  .574653968215D-04  .795807864051D-12  .000000000000D+00
     .120000000000D+02  .100875000000D+03  .482234372712D-08  .241612659246D+01
     .517815351486D-05  .494829844683D-02  .858120620251D-05  .515382567024D+04
     .201584000000D+06  .117346644402D-06  .291051069457D+01 -.223517417908D-07
     .931875574667D+00  .197156250000D+03  .126218334346D+01 -.816033991091D-08
     .989326923723D-10  .100000000000D+01  .166500000000D+04  .000000000000D+00
     .240000000000D+01  .000000000000D+00 -.791624188423D-08  .120000000000D+02
     .199956000000D+06  .400000000000D+01
18 11 12  6  9 59 28.0  .170526560396D-03  .181898940355D-11  .000000000000D+00
     .230000000000D+02  .971875000000D+02  .477091301339D-08  .299647060813D+01
     .495649874210D-05  .127344499342D-01  .865571200848D-05  .515365838432D+04
     .208768000000D+06  .279396772385D-07  .296425788055D+01 -.162050127983D-06
     .931570600135D+00  .193781250000D+03 -.220376467592D+01 -.796176021070D-08
     .857178562071D-10  .100000000000D+01  .166500000000D+04  .000000000000D+00
     .240000000000D+01  .000000000000D+00 -.111758708954D-07  .230000000000D+02
     .201606000000D+06  .400000000000D+01
 7 11 12  6  9 59 44.0  .416035763919D-04  .227373675443D-11  .000000000000D+00
     .400000000000D+02 -.916250000000D+02  .411017120513D-08 -.132498736311D+01
    -.493042171001D-05  .508886040188D-02  .688619911671D-05  .515363097382D+04
     .208784000000D+06  .335276126862D-07 -.122436383167D+01 -.484287738800D-07
     .975267089800D+00  .251843750000D+03 -.301199861456D+01 -.792854454142D-08
    -.482162941165D-10  .100000000000D+01  .166500000000D+04  .000000000000D+00
     .240000000000D+01  .000000000000D+00 -.111758708954D-07  .400000000000D+02
     .201606000000D+06  .400000000000D+01
20 11 12  6  9 59 44.0  .574709847569D-04  .795807864051D-12  .000000000000D+00
     .130000000000D+02  .904687500000D+02  .486305970881D-08 -.281688608798D+01
     .477209687233D-05  .494982500095D-02  .841915607452D-05  .515382272148D+04
     .208784000000D+06 -.111758708954D-07  .291045281568D+01  .186264514923D-08
     .931876153982D+00  .202000000000D+03  .126210170385D+01 -.808819404860D-08
     .964325882329D-11  .100000000000D+01  .166500000000D+04  .000000000000D+00
     .240000000000D+01  .000000000000D+00 -.791624188423D-08  .130000000000D+02
     .201606000000D+06  .400000000000D+01
 1 11 12  6 10  0  0.0  .129563733935D-03  .173940861714D-10  .000000000000D+00
     .760000000000D+02 -.712500000000D+01  .450447334368D-08 -.181307399934D+01
    -.437721610069D-06  .556143815629D-03  .910274684429D-05  .515366169548D+04
     .208800000000D+06  .447034835815D-07  .189775152184D+01  .111758708954D-07
     .959831570506D+00  .206156250000D+03  .126671546221D+01 -.790175771135D-08
    -.509664086698D-09  .100000000000D+01  .166500000000D+04  .000000000000D+00
     .240000000000D+01  .000000000000D+00  .791624188423D-08  .760000000000D+02
     .201606000000D+06  .400000000000D+01
 2 11 12  6 10  0  0.0  .368942040950D-03  .170530256582D-11  .000000000000D+00
     .134000000000D+03 -.990625000000D+01  .517235830663D-08  .222704508902D+00
    -.571832060814D-06  .106797030894D-01  .876747071743D-05  .515360774994D+04
     .208800000000D+06  .178813934326D-06  .188776838893D+01  .782310962677D-07
     .938408492823D+00  .198781250000D+03 -.290716781850D+01 -.839034949173D-08
    -.561809115890D-09  .100000000000D+01  .166500000000D+04  .000000000000D+00
     .340000000000D+01  .000000000000D+00 -.176951289177D-07  .134000000000D+03
     .201606000000D+06  .400000000000D+01
 3 11 12  6 10  0  0.0  .804589129984D-03  .522959453519D-11  .000000000000D+00
     .510000000000D+02  .415625000000D+01  .573845331533D-08  .363559966955D+00
     .411644577980D-06  .149270121474D-01  .572018325329D-05  .515368435669D+04
     .208800000000D+06 -.137835741043D-06  .726305119261D+00  .949949026108D-07
     .929906295290D+00  .253468750000D+03  .116042992870D+01 -.886072622767D-08
     .835749098019D-10  .100000000000D+01  .166500000000D+04  .000000000000D+00
     .240000000000D+01  .000000000000D+00 -.465661287308D-08  .510000000000D+02
     .201606000000D+06  .400000000000D+01
 4 11 12  6 10  0  0.0  .250088050961D-04  .113686837722D-10  .000000000000D+00
     .910000000000D+02 -.537500000000D+01  .499235080859D-08 -.292136944100D+01
    -.374391674995D-06  .100105614401D-01  .929646193981D-05  .515375544548D+04
     .208800000000D+06  .689178705215D-07  .190489212739D+01 -.182539224625D-06
     .937491074952D+00  .186656250000D+03  .809034252850D+00 -.806247869174D-08
    -.499306512406D-09  .100000000000D+01  .166500000000D+04  .000000000000D+00
     .240000000000D+01  .000000000000D+00 -.651925802231D-08  .910000000000D+02
     .201606000000D+06  .400000000000D+01
 5 11 12  6 10  0  0.0 -.254367478192D-03 -.488853402203D-11  .000000000000D+00
     .480000000000D+02  .106687500000D+03  .449554440033D-08  .211889382441D+01
     .551156699657D-05  .259331706911D-02  .906549394131D-05  .515357029724D+04
     .208800000000D+06  .186264514923D-07  .295022550451D+01 -.223517417908D-07
     .952808937597D+00  .202531250000D+03  .241517611995D+00 -.803247744207D-08
     .321441960776D-10  .100000000000D+01  .166500000000D+04  .000000000000D+00
     .240000000000D+01  .000000000000D+00 -.102445483208D-07  .480000000000D+02
     .201606000000D+06  .400000000000D+01
 6 11 12  6 10  0  0.0  .118776224554D-04  .454747350886D-11  .000000000000D+00
     .177000000000D+03  .218750000000D+00  .549880047568D-08  .231803792208D+01
     .158324837685D-06  .675823807251D-02  .531785190105D-05  .515369818687D+04
     .208800000000D+06  .171363353729D-06  .801534852012D+00  .124797224998D-06
     .936844203299D+00  .261250000000D+03 -.640098332425D+00 -.845999524990D-08
     .607168148133D-10  .100000000000D+01  .166500000000D+04  .000000000000D+00
     .340000000000D+01  .000000000000D+00 -.512227416039D-08  .177000000000D+03
     .201606000000D+06  .400000000000D+01
 8 11 12  6 10  0  0.0  .182073563337D-06  .113686837722D-12  .000000000000D+00
     .135000000000D+03 -.951875000000D+02  .355407661299D-08 -.185667650237D+01
    -.525638461113D-05  .121274434496D-01  .847131013870D-05  .515373543549D+04
     .208800000000D+06  .484287738800D-07 -.114472287865D+01 -.163912773132D-06
     .997247713359D+00  .234906250000D+03 -.299311529287D+01 -.762353183642D-08
     .510735559900D-10  .100000000000D+01  .166500000000D+04  .000000000000D+00
     .340000000000D+01  .000000000000D+00 -.419095158577D-08  .135000000000D+03
     .201606000000D+06  .400000000000D+01
 9 11 12  6 10  0  0.0  .123125966638D-03  .261479726760D-11  .000000000000D+00
     .610000000000D+02 -.102281250000D+03  .388944772540D-08 -.197298704336D+01
    -.499002635479D-05  .171529982472D-01  .667944550514D-05  .515365037155D+04
     .208800000000D+06  .275671482086D-06 -.125138202534D+01  .234693288803D-06
     .984072797485D+00  .258500000000D+03  .160182048317D+01 -.765817613663D-08
    -.130362572982D-09  .100000000000D+01  .166500000000D+04  .000000000000D+00
     .240000000000D+01  .000000000000D+00 -.558793544769D-08  .610000000000D+02
     .201606000000D+06  .400000000000D+01
